NORAD_CAT_ID,OBJECT_NAME,OBJECT_TYPE,EPOCH,MEAN_MOTION,ECCENTRICITY,INCLINATION,RA_OF_ASC_NODE,ARG_OF_PERICENTER,MEAN_ANOMALY,BSTAR,MEAN_MOTION_DOT,MEAN_MOTION_DDOT,TLE_LINE0,TLE_LINE1,TLE_LINE2,SEMIMAJOR_AXIS,PERIOD,APOGEE,PERIGEE,DECAYED
52616.0,STARLINK-4015,PAYLOAD,2022-11-21 01:03:40,15.08843524,0.0002844,53.2178,276.9855,34.5485,325.5691,7.2349e-05,8.63e-06,0.0,0 STARLINK-4015,1 52616U 22052U   22325.04421514  .00000863  00000-0  72349-4 0  9992,2 52616  53.2178 276.9855 0002844  34.5485 325.5691 15.08843524 29504,6917.87,95.437,541.702,537.7669999999998,0.0
52616.0,STARLINK-4015,PAYLOAD,2022-11-21 07:25:13,15.08835969,0.0002699,53.217,275.7956,25.8216,334.291,1.8207e-05,1e-08,0.0,0 STARLINK-4015,1 52616U 22052U   22325.30918157  .00000001  00000-0  18207-4 0  9992,2 52616  53.2170 275.7956 0002699  25.8216 334.2910 15.08835969 29547,6917.893,95.438,541.625,537.891,0.0
52616.0,STARLINK-4015,PAYLOAD,2022-11-21 20:08:18,15.08838393,0.0002548,53.2173,273.416,30.4094,329.7046,0.00012311,1.671e-05,0.0,0 STARLINK-4015,1 52616U 22052U   22325.83909942  .00001671  00000-0  12311-3 0  9995,2 52616  53.2173 273.4160 0002548  30.4094 329.7046 15.08838393 29252,6917.885,95.438,541.513,537.988,0.0
52616.0,STARLINK-4015,PAYLOAD,2022-11-22 02:29:50,15.08848233,0.0002579,53.2171,272.2268,30.7326,329.3816,0.0001439,2.003e-05,0.0,0 STARLINK-4015,1 52616U 22052U   22326.10405344  .00002003  00000-0  14390-3 0  9992,2 52616  53.2171 272.2268 0002579  30.7326 329.3816 15.08848233 29661,6917.855,95.437,541.504,537.936,0.0
52616.0,STARLINK-4015,PAYLOAD,2022-11-22 04:05:13,15.08849675,0.0002719,53.2174,271.9297,32.3112,327.8046,0.00015776,2.224e-05,0.0,0 STARLINK-4015,1 52616U 22052U   22326.17029305  .00002224  00000-0  15776-3 0  9992,2 52616  53.2174 271.9297 0002719  32.3112 327.8046 15.08849675 29309,6917.851,95.437,541.597,537.835,0.0
52616.0,STARLINK-4015,PAYLOAD,2022-11-22 13:37:32,15.08840929,0.000273,53.2171,270.1453,34.7263,325.3907,3.5458000000000005e-05,2.76e-06,0.0,0 STARLINK-4015,1 52616U 22052U   22326.56773723  .00000276  00000-0  35458-4 0  9990,2 52616  53.2171 270.1453 0002730  34.7263 325.3907 15.08840929 29736,6917.878000000002,95.437,541.631,537.854,0.0
52616.0,STARLINK-4015,PAYLOAD,2022-11-22 21:34:27,15.08843718,0.0002695,53.2166,268.6592,32.8217,327.2942,0.00015751,2.22e-05,0.0,0 STARLINK-4015,1 52616U 22052U   22326.89893449  .00002220  00000-0  15751-3 0  9998,2 52616  53.2166 268.6592 0002695  32.8217 327.2942 15.08843718 29418,6917.869000000002,95.437,541.5980000000002,537.87,0.0
52616.0,STARLINK-4015,PAYLOAD,2022-11-23 13:28:19,15.08837419,0.0002754,53.2175,265.6864,32.7458,327.3704,8.0016e-05,9.85e-06,0.0,0 STARLINK-4015,1 52616U 22052U   22327.56133851  .00000985  00000-0  80016-4 0  9990,2 52616  53.2175 265.6864 0002754  32.7458 327.3704 15.08837419 29518,6917.888000000001,95.438,541.658,537.8480000000002,0.0
52616.0,STARLINK-4015,PAYLOAD,2022-11-24 02:11:23,15.0886754,0.0002997,53.2179,263.3094,31.6927,328.4245,-0.00039809,-6.624e-05,0.0,0 STARLINK-4015,1 52616U 22052U   22328.09124992 -.00006624  00000-0 -39809-3 0  9996,2 52616  53.2179 263.3094 0002997  31.6927 328.4245 15.08867540 29969,6917.795999999999,95.436,541.734,537.5880000000002,0.0
52616.0,STARLINK-4015,PAYLOAD,2022-11-24 05:22:11,15.08841641,0.0002975,53.218,262.7133,31.8713,328.2458,1.5328e-05,-4.5e-07,0.0,0 STARLINK-4015,1 52616U 22052U   22328.22373877 -.00000045  00000-0  15328-4 0  9990,2 52616  53.2180 262.7133 0002975  31.8713 328.2458 15.08841641 29989,6917.875,95.437,541.798,537.682,0.0
52616.0,STARLINK-4015,PAYLOAD,2022-11-24 19:40:39,15.08841588,0.0002843,53.218,260.03700000000003,32.6529,327.4638,2.4395e-05,1e-06,0.0,0 STARLINK-4015,1 52616U 22052U   22328.81989834  .00000100  00000-0  24395-4 0  9996,2 52616  53.2180 260.0370 0002843  32.6529 327.4638 15.08841588 29702,6917.876,95.437,541.707,537.774,0.0
52616.0,STARLINK-4015,PAYLOAD,2022-11-25 02:02:11,15.08848583,0.00028,53.2177,258.8469,34.5912,325.5262,6.8852e-05,8.08e-06,0.0,0 STARLINK-4015,1 52616U 22052U   22329.08485177  .00000808  00000-0  68852-4 0  9998,2 52616  53.2177 258.8469 0002800  34.5912 325.5262 15.08848583 30113,6917.854,95.437,541.656,537.7819999999998,0.0
52616.0,STARLINK-4015,PAYLOAD,2022-11-25 19:31:25,15.08849269,0.0002733,53.2179,255.5757,33.0716,327.0447,0.00011458,1.536e-05,0.0,0 STARLINK-4015,1 52616U 22052U   22329.81348872  .00001536  00000-0  11458-3 0  9997,2 52616  53.2179 255.5757 0002733  33.0716 327.0447 15.08849269 29853,6917.852,95.437,541.6080000000002,537.826,0.0
52616.0,STARLINK-4015,PAYLOAD,2022-11-26 01:52:58,15.08850812,0.000293,53.2177,254.3859,38.7277,321.3925,2.8978000000000013e-05,1.73e-06,0.0,0 STARLINK-4015,1 52616U 22052U   22330.07844913  .00000173  00000-0  28978-4 0  9996,2 52616  53.2177 254.3859 0002930  38.7277 321.3925 15.08850812 29892,6917.847,95.437,541.739,537.685,0.0
52616.0,STARLINK-4015,PAYLOAD,2022-11-26 17:46:49,15.08843029,0.0002706,53.2174,251.4122,34.6219,325.4949,0.00011901,1.606e-05,0.0,0 STARLINK-4015,1 52616U 22052U   22330.74085165  .00001606  00000-0  11901-3 0  9995,2 52616  53.2174 251.4122 0002706  34.6219 325.4949 15.08843029 29996,6917.871,95.437,541.6080000000002,537.864,0.0
52616.0,STARLINK-4015,PAYLOAD,2022-11-27 01:43:44,15.08849114,0.0002566,53.2166,249.925,31.6244,328.4902,8.0385e-05,9.91e-06,0.0,0 STARLINK-4015,1 52616U 22052U   22331.07204678  .00000991  00000-0  80385-4 0  9993,2 52616  53.2166 249.9250 0002566  31.6244 328.4902 15.08849114 30412,6917.853,95.437,541.493,537.942,0.0
52616.0,STARLINK-4015,PAYLOAD,2022-11-27 19:12:59,15.08834572,0.0002723,53.2168,246.6546,36.4032,323.7145,-0.00011188,-2.069e-05,0.0,0 STARLINK-4015,1 52616U 22052U   22331.80069292 -.00002069  00000-0 -11188-3 0  9999,2 52616  53.2168 246.6546 0002723  36.4032 323.7145 15.08834572 30520,6917.897,95.438,541.646,537.878,0.0
52616.0,STARLINK-4015,PAYLOAD,2022-11-28 04:45:18,15.08842193,0.0002666,53.2175,244.8689,37.7456,322.3722,1.5768e-05,-3.8e-07,0.0,0 STARLINK-4015,1 52616U 22052U   22332.19813296 -.00000038  00000-0  15768-4 0  9995,2 52616  53.2175 244.8689 0002666  37.7456 322.3722 15.08842193 30586,6917.874,95.437,541.5830000000002,537.894,0.0
52616.0,STARLINK-4015,PAYLOAD,2022-11-28 22:14:36,15.08731787,0.0003172,53.2174,241.5978,50.2617,309.8654,0.0015845,0.00024946,0.0,0 STARLINK-4015,1 52616U 22052U   22332.92680652  .00024946  00000-0  15845-2 0  9991,2 52616  53.2174 241.5978 0003172  50.2617 309.8654 15.08731787 30694,6918.2109999999975,95.444,542.271,537.882,0.0
52616.0,STARLINK-4015,PAYLOAD,2022-11-29 04:36:05,15.08856578,0.0002487,53.2173,240.408,39.5148,320.6025,-0.00017343,-3.049e-05,0.0,0 STARLINK-4015,1 52616U 22052U   22333.19172860 -.00003049  00000-0 -17343-3 0  9997,2 52616  53.2173 240.4080 0002487  39.5148 320.6025 15.08856578 30736,6917.83,95.437,541.415,537.974,0.0
52616.0,STARLINK-4015,PAYLOAD,2022-11-29 10:57:38,15.08844361,0.0002689,53.2176,239.2196,35.7948,324.3224,0.00020028,2.901e-05,0.0,0 STARLINK-4015,1 52616U 22052U   22333.45669023  .00002901  00000-0  20028-3 0  9996,2 52616  53.2176 239.2196 0002689  35.7948 324.3224 15.08844361 30406,6917.8669999999975,95.437,541.592,537.872,0.0
52616.0,STARLINK-4015,PAYLOAD,2022-11-29 20:29:57,15.08840566,0.0002654,53.2171,237.4347,35.8663,324.2507,0.00012307,1.671e-05,0.0,0 STARLINK-4015,1 52616U 22052U   22333.85413687  .00001671  00000-0  12307-3 0  9997,2 52616  53.2171 237.4347 0002654  35.8663 324.2507 15.08840566 30839,6917.879,95.438,541.58,537.908,0.0
52616.0,STARLINK-4015,PAYLOAD,2022-11-30 01:16:07,15.08830312,0.000272,53.2175,236.5447,32.4865,327.6294,-4.9568e-05,-1.077e-05,0.0,0 STARLINK-4015,1 52616U 22052U   22334.05286713 -.00001077  00000-0 -49568-4 0  9990,2 52616  53.2175 236.5447 0002720  32.4865 327.6294 15.08830312 30866,6917.91,95.438,541.6569999999998,537.893,0.0
52616.0,STARLINK-4015,PAYLOAD,2022-11-30 10:48:26,15.08829678,0.000266,53.2177,234.7596,34.4258,325.6906,-1.6857e-05,-5.57e-06,0.0,0 STARLINK-4015,1 52616U 22052U   22334.45030851 -.00000557  00000-0 -16857-4 0  9991,2 52616  53.2177 234.7596 0002660  34.4258 325.6906 15.08829678 30551,6917.9119999999975,95.438,541.617,537.937,0.0
52616.0,STARLINK-4015,PAYLOAD,2022-11-30 17:09:59,15.08830956,0.0002664,53.2178,233.5705,34.1289,325.9874,6.169e-05,6.93e-06,0.0,0 STARLINK-4015,1 52616U 22052U   22334.71526708  .00000693  00000-0  61690-4 0  9995,2 52616  53.2178 233.5705 0002664  34.1289 325.9874 15.08830956 30598,6917.908,95.438,541.616,537.93,0.0
52616.0,STARLINK-4015,PAYLOAD,2022-12-01 02:42:17,15.08841726,0.000278,53.2173,231.7863,33.9025,326.2145,7.473899999999999e-05,9.01e-06,0.0,0 STARLINK-4015,1 52616U 22052U   22335.11270031  .00000901  00000-0  74739-4 0  9995,2 52616  53.2173 231.7863 0002780  33.9025 326.2145 15.08841726 31023,6917.875,95.437,541.663,537.817,0.0
52616.0,STARLINK-4015,PAYLOAD,2022-12-01 10:39:12,15.08847518,0.0002802,53.2174,230.2996,33.5774,326.5395,0.00013573,1.873e-05,0.0,0 STARLINK-4015,1 52616U 22052U   22335.44389420  .00001873  00000-0  13573-3 0  9991,2 52616  53.2174 230.2996 0002802  33.5774 326.5395 15.08847518 30706,6917.857,95.437,541.661,537.784,0.0
52616.0,STARLINK-4015,PAYLOAD,2022-12-01 23:22:18,15.08838746,0.000278,53.2177,227.9204,34.8955,325.2219,7.785e-05,9.51e-06,0.0,0 STARLINK-4015,1 52616U 22052U   22335.97381995  .00000951  00000-0  77850-4 0  9993,2 52616  53.2177 227.9204 0002780  34.8955 325.2219 15.08838746 31158,6917.884,95.438,541.672,537.826,0.0
52616.0,STARLINK-4015,PAYLOAD,2022-12-02 10:29:59,15.08841012,0.0002853,53.2172,225.8392,36.1975,323.921,0.00015526,2.183e-05,0.0,0 STARLINK-4015,1 52616U 22052U   22336.43749704  .00002183  00000-0  15526-3 0  9991,2 52616  53.2172 225.8392 0002853  36.1975 323.9210 15.08841012 30858,6917.877,95.437,541.716,537.769,0.0
